HST                     
1 20580U 90037B   21021.17309028  .00000492  00000-0  18889-4 0  9993
2 20580  28.4707 319.5184 0002456 275.3098 282.2701 15.09538791488827
POLAR                   
1 23802U 96013A   21018.56707792  .00000234  00000-0  00000-0 0  9998
2 23802  78.7065 247.1560 6127452 276.1795  21.7550  1.29846398119202
SWAS                    
1 25560U 98071A   21021.53312060  .00000098  00000-0  17740-4 0  9999
2 25560  69.8973 194.9118 0007825 348.8842  11.2139 14.93988519201595
CXO                     
1 25867U 99040B   21022.65930144  .00000391  00000-0  00000-0 0  9992
2 25867  58.3436 260.5847 8092398 226.3891   0.1422  0.37801998  9880
XMM-NEWTON              
1 25989U 99066A   21022.93347868  .00000049  00000-0  00000-0 0  9991
2 25989  70.9903 315.4340 6797005  91.5842   0.2859  0.50133448 13125
TERRA                   
1 25994U 99068A   21021.55950487  .00000035  00000-0  17749-4 0  9990
2 25994  98.1926  98.5690 0001332  98.4439   8.4453 14.57121372121954
CLUSTER II-FM7 (SAMBA)  
1 26410U 00041A   21022.72598301  .00000192  00000-0  00000-0 0  9992
2 26410 132.4118 343.3445 4680001 188.7582 359.2533  0.44222650 11556
CLUSTER II-FM6 (SALSA)  
1 26411U 00041B   21022.79469884  .00000224  00000-0  00000-0 0  9999
2 26411 132.8220 344.9153 6096215 193.9446 359.2481  0.44221674 11596
CLUSTER II-FM5 (RUMBA)  
1 26463U 00045A   21022.79201986  .00000273  00000-0  00000-0 0  9991
2 26463 136.4603 344.7700 5674160 193.9894 359.2595  0.44221537 11483
CLUSTER II-FM8 (TANGO)  
1 26464U 00045B   21022.72545833  .00000192  00000-0  00000-0 0  9997
2 26464 132.4164 343.3352 4679687 188.7539 359.2425  0.44219846 11567
ODIN                    
1 26702U 01007A   21021.47379467  .00000630  00000-0  44635-4 0  9993
2 26702  97.5450  40.6770 0009631 236.5419 123.4889 15.08279006 89079
TIMED                   
1 26998U 01055B   21021.53511470  .00000095  00000-0  14293-4 0  9994
2 26998  74.0706 219.0394 0002169 253.8269 106.2673 14.88260563 36884
RHESSI                  
1 27370U 02004A   21021.44337910  .00002382  00000-0  74981-4 0  9990
2 27370  38.0326 284.0035 0013130 310.9817  48.9818 15.33962177 47803
INTEGRAL                
1 27540U 02048A   21016.28746555  .00000490  00000-0  00000+0 0  9996
2 27540  59.8365  96.5552 8999576 297.0091   1.7175  0.37569377 19197
CORIOLIS                
1 27640U 03001A   21021.58012964  .00000009  00000-0  25326-4 0  9995
2 27640  98.7247  33.6576 0015004 127.3602 339.7473 14.19058866934379
SORCE                   
1 27651U 03004A   21021.53240644  .00000102  00000-0  24714-4 0  9997
2 27651  39.9939 193.7891 0021024 114.2784 246.0204 14.89222413976713
MOST                    
1 27843U 03031D   21021.46855929 -.00000013  00000-0  14214-4 0  9996
2 27843  98.7100  31.5781 0009992 178.8796 181.2405 14.20626854910550
SCISAT 1                
1 27858U 03036A   21021.52071994  .00000015  00000-0  71952-5 0  9990
2 27858  73.9337 114.5921 0009381 271.6470  88.3630 14.77325310939850
SWIFT                   
1 28485U 04047A   21021.44737869  .00000866  00000-0  28466-4 0  9996
2 28485  20.5571 298.6123 0010856 294.7793  65.1511 15.04834099886331
FORMOSAT-3 FM6          
1 29047U 06011A   21021.29170273  .00000159  00000-0  78403-4 0  9998
2 29047  71.9787  25.3585 0048591  44.1337 316.3660 14.28778039772426
FORMOSAT-3 FM1          
1 29048U 06011B   21021.45525562  .00000083  00000-0  48822-4 0  9990
2 29048  71.9672 295.6785 0043510   1.5430 358.5832 14.28748719774930
FORMOSAT-3 FM5          
1 29049U 06011C   21021.51451094  .00000057  00000-0  38826-4 0  9990
2 29049  72.0209 108.4491 0034067  25.7594 334.5229 14.28825361770737
FORMOSAT-3 FM3          
1 29050U 06011D   21021.59228998  .00000109  00000-0  33347-4 0  9996
2 29050  72.0141 232.0743 0051610 287.5481  72.0037 14.59006826788140
FORMOSAT-3 FM4          
1 29051U 06011E   21021.36907406  .00000041  00000-0  31824-4 0  9993
2 29051  72.0058  10.3753 0070662 268.0529  91.2514 14.28862077773287
FORMOSAT-3 FM2          
1 29052U 06011F   21021.42303898  .00000053  00000-0  36864-4 0  9998
2 29052  72.0346  85.1255 0040771 344.8589  15.1323 14.28967204770831
CLOUDSAT                
1 29107U 06016A   21021.57264362  .00000093  00000-0  27907-4 0  9994
2 29107  98.2602 334.3910 0001983  79.4373 280.7051 14.62294123784203
CALIPSO                 
1 29108U 06016B   21021.55754538  .00000133  00000-0  35622-4 0  9990
2 29108  98.2582 334.1472 0001188  84.5052 275.6284 14.62494294784190
HINODE (SOLAR-B)        
1 29479U 06041A   21021.49225864  .00000060  00000-0  20096-4 0  9995
2 29479  98.1543  37.5245 0017950  45.6543 314.6128 14.65118541765816
SJ-6C                   
1 29505U 06046A   21021.46193369  .00000290  00000-0  31783-4 0  9991
2 29505  97.8077  40.3404 0005397  44.0092 316.1575 14.95025703776182
SJ-6D                   
1 29506U 06046B   21021.47811109  .00000700  00000-0  71798-4 0  9998
2 29506  97.8290  40.5467 0003666 109.1552 251.0065 14.93572691775712
AGILE                   
1 31135U 07013A   21021.15231711  .00002621  00000-0  44378-4 0  9992
2 31135   2.4674 291.1160 0011747 338.2543  21.7013 15.33016048398113
AIM                     
1 31304U 07015A   21021.43976387  .00000846  00000-0  50430-4 0  9991
2 31304  97.8834 278.0600 0004804 349.9128  10.2006 15.14050077753663
FGRST (GLAST)           
1 33053U 08029A   21021.45302028  .00000516  00000-0  12700-4 0  9999
2 33053  25.5837  55.7072 0012373  12.6099 347.4744 15.11446630696257
WISE                    
1 36119U 09071A   21021.54450729  .00000782  00000-0  28981-4 0  9998
2 36119  97.3038  60.6120 0002185  10.9366 349.1922 15.30542280617158
SDO                     
1 36395U 10005A   21021.29408851 -.00000073  00000-0  00000-0 0  9996
2 36395  30.7015 117.6507 0000682 246.5312 120.4644  1.00269314 40281
CRYOSAT 2               
1 36508U 10013A   21021.59318600  .00000005  00000-0  36914-6 0  9999
2 36508  92.0189 160.4604 0006153 166.5837 193.5535 14.51909824571888
X-SAT                   
1 37389U 11015C   21021.42004940 -.00000036  00000-0  23979-5 0  9992
2 37389  98.4060  73.7688 0014390  17.4848 342.6825 14.24386489507312
GCOM-W1 (SHIZUKU)       
1 38337U 12025A   21021.59012323  .00000040  00000-0  18883-4 0  9991
2 38337  98.2153 324.4072 0001914  41.2296 132.7354 14.57107157461773
NUSTAR                  
1 38358U 12031A   21021.43285448  .00000940  00000-0  24327-4 0  9993
2 38358   6.0263 125.4819 0011447 155.4896 204.5777 14.88433138468509
NEOSSAT                 
1 39089U 13009D   21021.31099334  .00000029  00000-0  25657-4 0  9990
2 39089  98.4497 224.6157 0011383   6.3178 353.8149 14.34542479413789
IRIS                    
1 39197U 13033A   21021.49011110  .00000110  00000-0  22177-4 0  9997
2 39197  97.9597 207.2571 0026496 243.6842 116.1648 14.78805876408303
HISAKI (SPRINT-A)       
1 39253U 13049A   21021.55869067  .00000103  00000-0  48895-4 0  9993
2 39253  29.7188 165.9776 0137233 229.2736 129.5847 13.55237672363616
CASSIOPE                
1 39265U 13055A   21021.60516409  .00003006  00000-0  82902-4 0  9990
2 39265  80.9665  86.1444 0654225  24.6333 338.4647 14.31085789378989
STSAT-3                 
1 39422U 13066G   21021.51736341  .00000087  00000-0  14493-4 0  9992
2 39422  97.4922  49.1403 0022945 183.8389 176.2638 14.89910240389605
SWARM B                 
1 39451U 13067A   21021.57977150  .00000367  00000-0  14570-4 0  9993
2 39451  87.7540 214.5219 0003971  94.2346 265.9353 15.21898882383130
SWARM A                 
1 39452U 13067B   21021.56515059  .00001197  00000-0  24289-4 0  9999
2 39452  87.3586  51.2805 0002200  94.8108 265.3401 15.45144302402856
SWARM C                 
1 39453U 13067C   21021.56507104  .00001179  00000-0  23920-4 0  9993
2 39453  87.3439  51.7947 0002195  94.9964 265.1544 15.45142781402811
BRITE-CA1 (TORONTO)     
1 40020U 14033L   21021.45334806  .00000062  00000-0  18697-4 0  9999
2 40020  97.7306 203.2235 0088698  96.9049 264.2257 14.66699760352601
OCO 2                   
1 40059U 14035A   21021.55382600  .00000046  00000-0  20315-4 0  9991
2 40059  98.2149 325.0955 0001085  75.5238 284.6081 14.57116753348785
BRITE-PL2 (HEWELIUSZ)   
1 40119U 14049B   21021.50017511  .00000132  00000-0  21993-4 0  9993
2 40119  97.8907 117.5495 0018698 114.9673 245.3486 14.84590799348049
RESURS P2               
1 40360U 14087A   21021.56251090  .00000706  00000-0  23806-4 0  9993
2 40360  97.2363 112.0760 0010767 119.1016   5.6376 15.33941270339740
MMS 1                   
1 40482U 15011A   21012.29541450 -.00001954  00000-0  00000+0 0  9991
2 40482  32.0950 118.7739 8477888  27.5539 329.4057  0.28531793 11804
MMS 2                   
1 40483U 15011B   20359.39583333 -.00000873  00000-0  00000+0 0  9991
2 40483  31.9421 119.0520 8478594  26.9368 187.7615  0.28570892 11736
MMS 3                   
1 40484U 15011C   20359.39583333 -.00000874  00000-0  00000+0 0  9993
2 40484  31.9509 119.0403 8480379  26.9346 187.7683  0.28571045 11730
MMS 4                   
1 40485U 15011D   20359.39583333 -.00000873  00000-0  00000+0 0  9993
2 40485  31.9433 119.0523 8479943  26.9371 187.7469  0.28570861 11730
ASTROSAT                
1 40930U 15052A   21020.96373717  .00000734  00000-0  14020-4 0  9992
2 40930   5.9953 231.9077 0007984 107.0174 253.0828 14.76365395287370
DAMPE                   
1 41173U 15078A   21021.57019448  .00000032  00000-0  42185-5 0  9991
2 41173  97.3395  16.7258 0013074 196.2589 272.2953 15.23951125283612
PISAT                   
1 41784U 16059B   21021.59263324  .00000075  00000-0  23493-4 0  9992
2 41784  97.9901  77.8113 0031524 348.1561  11.8896 14.63580214230812
HXMT (HUIYAN)           
1 42758U 17034A   21021.57388233  .00000317  00000-0  33308-4 0  9998
2 42758  43.0180 279.2527 0011056 316.0091 112.5024 15.09040572198827
FLYING LAPTOP           
1 42831U 17042G   21021.54816876  .00000713  00000-0  76919-4 0  9990
2 42831  97.4911 258.8696 0012466 278.5886  81.3939 14.91228917191792
PICSAT                  
1 43132U 18004X   21021.45926738  .00001451  00000-0  60621-4 0  9996
2 43132  97.4257  97.2789 0009505  16.5557 343.5989 15.25206411168271
ZHANGZHENG-1 (CSES)     
1 43194U 18015C   21021.61156056  .00001077  00000-0  51562-4 0  9990
2 43194  97.4592 150.2412 0014570  67.5783  27.8263 15.21038702164825
ICON                    
1 44628U 19068A   21021.45128161  .00000466  00000-0  25308-4 0  9990
2 44628  26.9911  51.1968 0018916 177.6792 182.3856 14.91835459 70018
SALSAT                  
1 46495U 20068K   21021.56816465  .00001017  00000-0  79302-4 0  9995
2 46495  97.6809 320.0605 0016527 207.1074 152.9289 15.03328419 17265
